{
    "links": {
        "self": "http://www.neowsapp.com/rest/v1/neo/3297631?api_key=iIulBulltgU6a56xZRHN4H3l9WmuAYTsLGpBGhQ2"
    },
    "id": "3297631",
    "neo_reference_id": "3297631",
    "name": "(2005 VN1)",
    "designation": "2005 VN1",
    "nasa_jpl_url": "http://ssd.jpl.nasa.gov/sbdb.cgi?sstr=3297631",
    "absolute_magnitude_h": 25.1,
    "estimated_diameter": {
        "kilometers": {
            "estimated_diameter_min": 0.0253837029,
            "estimated_diameter_max": 0.0567596853
        },
        "meters": {
            "estimated_diameter_min": 25.3837029364,
            "estimated_diameter_max": 56.7596852866
        },
        "miles": {
            "estimated_diameter_min": 0.0157726969,
            "estimated_diameter_max": 0.0352688224
        },
        "feet": {
            "estimated_diameter_min": 83.279867942,
            "estimated_diameter_max": 186.2194458756
        }
    },
    "is_potentially_hazardous_asteroid": false,
    "close_approach_data": [
        {
            "close_approach_date": "2005-06-24",
            "close_approach_date_full": "2005-Jun-24 12:07",
            "epoch_date_close_approach": 1119614820000,
            "relative_velocity": {
                "kilometers_per_second": "6.1528233231",
                "kilometers_per_hour": "22150.1639631635",
                "miles_per_hour": "13763.2504914445"
            },
            "miss_distance": {
                "astronomical": "0.3669989129",
                "lunar": "142.7625771181",
                "kilometers": "54902255.662155523",
                "miles": "34114679.7497432974"
            },
            "orbiting_body": "Earth"
        },
        {
            "close_approach_date": "2005-10-31",
            "close_approach_date_full": "2005-Oct-31 11:53",
            "epoch_date_close_approach": 1130759580000,
            "relative_velocity": {
                "kilometers_per_second": "9.8352964844",
                "kilometers_per_hour": "35407.067343906",
                "miles_per_hour": "22000.5747059954"
            },
            "miss_distance": {
                "astronomical": "0.0132960762",
                "lunar": "5.1721736418",
                "kilometers": "1989064.678877694",
                "miles": "1235947.4798084172"
            },
            "orbiting_body": "Earth"
        }
    ],
    "orbital_data": {
        "orbit_id": "7",
        "orbit_determination_date": "2017-04-06 09:11:42",
        "first_observation_date": "2005-11-04",
        "last_observation_date": "2005-11-05",
        "data_arc_in_days": 1,
        "observations_used": 15,
        "orbit_uncertainty": "9",
        "minimum_orbit_intersection": ".011567",
        "jupiter_tisserand_invariant": "4.695",
        "epoch_osculation": "2453679.5",
        "eccentricity": ".3217929710642702",
        "semi_major_axis": "1.39038121159144",
        "inclination": "13.18351496007622",
        "ascending_node_longitude": "220.4950047362994",
        "orbital_period": "598.8240891448091",
        "perihelion_distance": ".9429663106014911",
        "perihelion_argument": "137.6170151827908",
        "aphelion_distance": "1.83779611258139",
        "perihelion_time": "2453641.089222546607",
        "mean_anomaly": "23.09172281791354",
        "mean_motion": ".6011782199913203",
        "equinox": "J2000",
        "orbit_class": {
            "orbit_class_type": "APO",
            "orbit_class_description": "Near-Earth asteroid orbits which cross the Earth’s orbit similar to that of 1862 Apollo",
            "orbit_class_range": "a (semi-major axis) > 1.0 AU; q (perihelion) < 1.017 AU"
        }
    },
    "is_sentry_object": false
}